STARLINK-36175          
1 67012U 25293K   25354.25003472 -.01131808  38138-3 -33440-2 0  9995
2 67012  69.9940 301.9647 0003918 272.4602 314.1169 15.92394200  1325
STARLINK-35856          
1 67013U 25293L   25354.25003472 -.01161678  40042-3 -34221-2 0  9999
2 67013  69.9938 301.9613 0003910 272.2190 316.9266 15.92455926  1329
STARLINK-36207          
1 67014U 25293M   25354.25003472 -.01195309  42233-3 -35107-2 0  9996
2 67014  69.9943 301.9588 0003921 274.0737 317.4690 15.92518419  1386
STARLINK-36093          
1 67015U 25293N   25354.25003472 -.01239694  45220-3 -36223-2 0  9992
2 67015  69.9939 301.9529 0003894 270.2578 326.0240 15.92624622  1322
STARLINK-36120          
1 67016U 25293P   25354.25003472 -.01212073  43354-3 -35514-2 0  9993
2 67016  69.9940 301.9561 0003871 270.7222 323.0404 15.92567482  1326
STARLINK-35498          
1 67017U 25293Q   25354.25003472 -.01257011  46416-3 -36638-2 0  9995
2 67017  69.9937 301.9502 0003925 271.5205 327.1053 15.92674638  1516
STARLINK-36106          
1 67018U 25293R   25354.25003472 -.01274755  47656-3 -37064-2 0  9991
2 67018  69.9936 301.9470 0003999 272.3941 328.5978 15.92724340  1435
STARLINK-35688          
1 67019U 25293S   25354.25003472 -.01277205  47843-3 -37063-2 0  9992
2 67019  69.9935 301.9442 0003885 271.5164 331.6799 15.92762710  1514
STARLINK-36172          
1 67020U 25293T   25354.25003472 -.01286154  48487-3 -37232-2 0  9990
2 67020  69.9935 301.9412 0003912 273.5843 332.4209 15.92811067  1436
STARLINK-36184          
1 67021U 25293U   25354.25003472 -.01287115  48574-3 -37177-2 0  9994
2 67021  69.9936 301.9379 0003888 270.2191 338.3406 15.92853724  1432
STARLINK-36209          
1 67022U 25293V   25354.25003472 -.01299213  49445-3 -37429-2 0  9995
2 67022  69.9934 301.9345 0003974 271.4094 340.1482 15.92904878  1437
STARLINK-36191          
1 67023U 25293W   25354.25003472 -.01301940  49657-3 -37429-2 0  9992
2 67023  69.9933 301.9310 0003946 272.3330 341.6750 15.92945812  1326
