CCSDS_OMM_VERS = 2.0
CREATION_DATE  = 
ORIGINATOR     = 

OBJECT_NAME    = STARLINK-36175
OBJECT_ID      = 2025-293K
CENTER_NAME    = EARTH
REF_FRAME      = TEME
TIME_SYSTEM    = UTC
MEAN_ELEMENT_THEORY = SGP/SGP4

EPOCH          = 2025-12-20T06:00:02.999808
MEAN_MOTION    = 15.92394200
ECCENTRICITY   = .00039186
INCLINATION    = 69.9940
RA_OF_ASC_NODE = 301.9647
ARG_OF_PERICENTER = 272.4602
MEAN_ANOMALY   = 314.1169

EPHEMERIS_TYPE = 0
CLASSIFICATION_TYPE = U
NORAD_CAT_ID   = 67012
ELEMENT_SET_NO = 999
REV_AT_EPOCH   = 132
BSTAR          = -.33440274E-2
MEAN_MOTION_DOT = -.1131808E-1
MEAN_MOTION_DDOT = .38138131E-3

CCSDS_OMM_VERS = 2.0
CREATION_DATE  = 
ORIGINATOR     = 

OBJECT_NAME    = STARLINK-35856
OBJECT_ID      = 2025-293L
CENTER_NAME    = EARTH
REF_FRAME      = TEME
TIME_SYSTEM    = UTC
MEAN_ELEMENT_THEORY = SGP/SGP4

EPOCH          = 2025-12-20T06:00:02.999808
MEAN_MOTION    = 15.92455926
ECCENTRICITY   = .00039105
INCLINATION    = 69.9938
RA_OF_ASC_NODE = 301.9613
ARG_OF_PERICENTER = 272.2190
MEAN_ANOMALY   = 316.9266

EPHEMERIS_TYPE = 0
CLASSIFICATION_TYPE = U
NORAD_CAT_ID   = 67013
ELEMENT_SET_NO = 999
REV_AT_EPOCH   = 132
BSTAR          = -.34221195E-2
MEAN_MOTION_DOT = -.1161678E-1
MEAN_MOTION_DDOT = .40041568E-3

CCSDS_OMM_VERS = 2.0
CREATION_DATE  = 
ORIGINATOR     = 

OBJECT_NAME    = STARLINK-36207
OBJECT_ID      = 2025-293M
CENTER_NAME    = EARTH
REF_FRAME      = TEME
TIME_SYSTEM    = UTC
MEAN_ELEMENT_THEORY = SGP/SGP4

EPOCH          = 2025-12-20T06:00:02.999808
MEAN_MOTION    = 15.92518419
ECCENTRICITY   = .00039213
INCLINATION    = 69.9943
RA_OF_ASC_NODE = 301.9588
ARG_OF_PERICENTER = 274.0737
MEAN_ANOMALY   = 317.4690

EPHEMERIS_TYPE = 0
CLASSIFICATION_TYPE = U
NORAD_CAT_ID   = 67014
ELEMENT_SET_NO = 999
REV_AT_EPOCH   = 138
BSTAR          = -.35107011E-2
MEAN_MOTION_DOT = -.1195309E-1
MEAN_MOTION_DDOT = .42233423E-3

CCSDS_OMM_VERS = 2.0
CREATION_DATE  = 
ORIGINATOR     = 

OBJECT_NAME    = STARLINK-36093
OBJECT_ID      = 2025-293N
CENTER_NAME    = EARTH
REF_FRAME      = TEME
TIME_SYSTEM    = UTC
MEAN_ELEMENT_THEORY = SGP/SGP4

EPOCH          = 2025-12-20T06:00:02.999808
MEAN_MOTION    = 15.92624622
ECCENTRICITY   = .00038942
INCLINATION    = 69.9939
RA_OF_ASC_NODE = 301.9529
ARG_OF_PERICENTER = 270.2578
MEAN_ANOMALY   = 326.0240

EPHEMERIS_TYPE = 0
CLASSIFICATION_TYPE = U
NORAD_CAT_ID   = 67015
ELEMENT_SET_NO = 999
REV_AT_EPOCH   = 132
BSTAR          = -.36223296E-2
MEAN_MOTION_DOT = -.1239694E-1
MEAN_MOTION_DDOT = .4522039E-3

CCSDS_OMM_VERS = 2.0
CREATION_DATE  = 
ORIGINATOR     = 

OBJECT_NAME    = STARLINK-36120
OBJECT_ID      = 2025-293P
CENTER_NAME    = EARTH
REF_FRAME      = TEME
TIME_SYSTEM    = UTC
MEAN_ELEMENT_THEORY = SGP/SGP4

EPOCH          = 2025-12-20T06:00:02.999808
MEAN_MOTION    = 15.92567482
ECCENTRICITY   = .0003871
INCLINATION    = 69.9940
RA_OF_ASC_NODE = 301.9561
ARG_OF_PERICENTER = 270.7222
MEAN_ANOMALY   = 323.0404

EPHEMERIS_TYPE = 0
CLASSIFICATION_TYPE = U
NORAD_CAT_ID   = 67016
ELEMENT_SET_NO = 999
REV_AT_EPOCH   = 132
BSTAR          = -.35514156E-2
MEAN_MOTION_DOT = -.1212073E-1
MEAN_MOTION_DDOT = .43354205E-3

CCSDS_OMM_VERS = 2.0
CREATION_DATE  = 
ORIGINATOR     = 

OBJECT_NAME    = STARLINK-35498
OBJECT_ID      = 2025-293Q
CENTER_NAME    = EARTH
REF_FRAME      = TEME
TIME_SYSTEM    = UTC
MEAN_ELEMENT_THEORY = SGP/SGP4

EPOCH          = 2025-12-20T06:00:02.999808
MEAN_MOTION    = 15.92674638
ECCENTRICITY   = .00039258
INCLINATION    = 69.9937
RA_OF_ASC_NODE = 301.9502
ARG_OF_PERICENTER = 271.5205
MEAN_ANOMALY   = 327.1053

EPHEMERIS_TYPE = 0
CLASSIFICATION_TYPE = U
NORAD_CAT_ID   = 67017
ELEMENT_SET_NO = 999
REV_AT_EPOCH   = 151
BSTAR          = -.36638472E-2
MEAN_MOTION_DOT = -.1257011E-1
MEAN_MOTION_DDOT = .46415883E-3

CCSDS_OMM_VERS = 2.0
CREATION_DATE  = 
ORIGINATOR     = 

OBJECT_NAME    = STARLINK-36106
OBJECT_ID      = 2025-293R
CENTER_NAME    = EARTH
REF_FRAME      = TEME
TIME_SYSTEM    = UTC
MEAN_ELEMENT_THEORY = SGP/SGP4

EPOCH          = 2025-12-20T06:00:02.999808
MEAN_MOTION    = 15.92724340
ECCENTRICITY   = .00039995
INCLINATION    = 69.9936
RA_OF_ASC_NODE = 301.9470
ARG_OF_PERICENTER = 272.3941
MEAN_ANOMALY   = 328.5978

EPHEMERIS_TYPE = 0
CLASSIFICATION_TYPE = U
NORAD_CAT_ID   = 67018
ELEMENT_SET_NO = 999
REV_AT_EPOCH   = 143
BSTAR          = -.37063874E-2
MEAN_MOTION_DOT = -.1274755E-1
MEAN_MOTION_DDOT = .47655557E-3

CCSDS_OMM_VERS = 2.0
CREATION_DATE  = 
ORIGINATOR     = 

OBJECT_NAME    = STARLINK-35688
OBJECT_ID      = 2025-293S
CENTER_NAME    = EARTH
REF_FRAME      = TEME
TIME_SYSTEM    = UTC
MEAN_ELEMENT_THEORY = SGP/SGP4

EPOCH          = 2025-12-20T06:00:02.999808
MEAN_MOTION    = 15.92762710
ECCENTRICITY   = .00038851
INCLINATION    = 69.9935
RA_OF_ASC_NODE = 301.9442
ARG_OF_PERICENTER = 271.5164
MEAN_ANOMALY   = 331.6799

EPHEMERIS_TYPE = 0
CLASSIFICATION_TYPE = U
NORAD_CAT_ID   = 67019
ELEMENT_SET_NO = 999
REV_AT_EPOCH   = 151
BSTAR          = -.37063386E-2
MEAN_MOTION_DOT = -.1277205E-1
MEAN_MOTION_DDOT = .4784304E-3

CCSDS_OMM_VERS = 2.0
CREATION_DATE  = 
ORIGINATOR     = 

OBJECT_NAME    = STARLINK-36172
OBJECT_ID      = 2025-293T
CENTER_NAME    = EARTH
REF_FRAME      = TEME
TIME_SYSTEM    = UTC
MEAN_ELEMENT_THEORY = SGP/SGP4

EPOCH          = 2025-12-20T06:00:02.999808
MEAN_MOTION    = 15.92811067
ECCENTRICITY   = .00039124
INCLINATION    = 69.9935
RA_OF_ASC_NODE = 301.9412
ARG_OF_PERICENTER = 273.5843
MEAN_ANOMALY   = 332.4209

EPHEMERIS_TYPE = 0
CLASSIFICATION_TYPE = U
NORAD_CAT_ID   = 67020
ELEMENT_SET_NO = 999
REV_AT_EPOCH   = 143
BSTAR          = -.37231525E-2
MEAN_MOTION_DOT = -.1286154E-1
MEAN_MOTION_DDOT = .48486814E-3

CCSDS_OMM_VERS = 2.0
CREATION_DATE  = 
ORIGINATOR     = 

OBJECT_NAME    = STARLINK-36184
OBJECT_ID      = 2025-293U
CENTER_NAME    = EARTH
REF_FRAME      = TEME
TIME_SYSTEM    = UTC
MEAN_ELEMENT_THEORY = SGP/SGP4

EPOCH          = 2025-12-20T06:00:02.999808
MEAN_MOTION    = 15.92853724
ECCENTRICITY   = .00038883
INCLINATION    = 69.9936
RA_OF_ASC_NODE = 301.9379
ARG_OF_PERICENTER = 270.2191
MEAN_ANOMALY   = 338.3406

EPHEMERIS_TYPE = 0
CLASSIFICATION_TYPE = U
NORAD_CAT_ID   = 67021
ELEMENT_SET_NO = 999
REV_AT_EPOCH   = 143
BSTAR          = -.37177324E-2
MEAN_MOTION_DOT = -.1287115E-1
MEAN_MOTION_DDOT = .48574478E-3

CCSDS_OMM_VERS = 2.0
CREATION_DATE  = 
ORIGINATOR     = 

OBJECT_NAME    = STARLINK-36209
OBJECT_ID      = 2025-293V
CENTER_NAME    = EARTH
REF_FRAME      = TEME
TIME_SYSTEM    = UTC
MEAN_ELEMENT_THEORY = SGP/SGP4

EPOCH          = 2025-12-20T06:00:02.999808
MEAN_MOTION    = 15.92904878
ECCENTRICITY   = .00039742
INCLINATION    = 69.9934
RA_OF_ASC_NODE = 301.9345
ARG_OF_PERICENTER = 271.4094
MEAN_ANOMALY   = 340.1482

EPHEMERIS_TYPE = 0
CLASSIFICATION_TYPE = U
NORAD_CAT_ID   = 67022
ELEMENT_SET_NO = 999
REV_AT_EPOCH   = 143
BSTAR          = -.37429226E-2
MEAN_MOTION_DOT = -.1299213E-1
MEAN_MOTION_DDOT = .49445488E-3

CCSDS_OMM_VERS = 2.0
CREATION_DATE  = 
ORIGINATOR     = 

OBJECT_NAME    = STARLINK-36191
OBJECT_ID      = 2025-293W
CENTER_NAME    = EARTH
REF_FRAME      = TEME
TIME_SYSTEM    = UTC
MEAN_ELEMENT_THEORY = SGP/SGP4

EPOCH          = 2025-12-20T06:00:02.999808
MEAN_MOTION    = 15.92945812
ECCENTRICITY   = .00039467
INCLINATION    = 69.9933
RA_OF_ASC_NODE = 301.9310
ARG_OF_PERICENTER = 272.3330
MEAN_ANOMALY   = 341.6750

EPHEMERIS_TYPE = 0
CLASSIFICATION_TYPE = U
NORAD_CAT_ID   = 67023
ELEMENT_SET_NO = 999
REV_AT_EPOCH   = 132
BSTAR          = -.3742904E-2
MEAN_MOTION_DOT = -.130194E-1
MEAN_MOTION_DDOT = .49657491E-3

